{
    "links": {
        "self": "http://www.neowsapp.com/rest/v1/neo/3545238?api_key=iIulBulltgU6a56xZRHN4H3l9WmuAYTsLGpBGhQ2"
    },
    "id": "3545238",
    "neo_reference_id": "3545238",
    "name": "(2010 QN1)",
    "designation": "2010 QN1",
    "nasa_jpl_url": "http://ssd.jpl.nasa.gov/sbdb.cgi?sstr=3545238",
    "absolute_magnitude_h": 20.1,
    "estimated_diameter": {
        "kilometers": {
            "estimated_diameter_min": 0.2538370294,
            "estimated_diameter_max": 0.5675968529
        },
        "meters": {
            "estimated_diameter_min": 253.8370293645,
            "estimated_diameter_max": 567.5968528656
        },
        "miles": {
            "estimated_diameter_min": 0.1577269688,
            "estimated_diameter_max": 0.3526882241
        },
        "feet": {
            "estimated_diameter_min": 832.7986794202,
            "estimated_diameter_max": 1862.1944587557
        }
    },
    "is_potentially_hazardous_asteroid": false,
    "close_approach_data": [
        {
            "close_approach_date": "2010-08-31",
            "close_approach_date_full": "2010-Aug-31 23:54",
            "epoch_date_close_approach": 1283298840000,
            "relative_velocity": {
                "kilometers_per_second": "18.7244352446",
                "kilometers_per_hour": "67407.9668805622",
                "miles_per_hour": "41884.6891986471"
            },
            "miss_distance": {
                "astronomical": "0.2320394179",
                "lunar": "90.2633335631",
                "kilometers": "34712602.673879873",
                "miles": "21569411.1146653274"
            },
            "orbiting_body": "Earth"
        },
        {
            "close_approach_date": "2012-03-17",
            "close_approach_date_full": "2012-Mar-17 06:36",
            "epoch_date_close_approach": 1331966160000,
            "relative_velocity": {
                "kilometers_per_second": "22.7843510566",
                "kilometers_per_hour": "82023.6638036794",
                "miles_per_hour": "50966.3148784584"
            },
            "miss_distance": {
                "astronomical": "0.3244012883",
                "lunar": "126.1921011487",
                "kilometers": "48529741.754935921",
                "miles": "30154983.2213648698"
            },
            "orbiting_body": "Earth"
        },
        {
            "close_approach_date": "2123-08-26",
            "close_approach_date_full": "2123-Aug-26 00:46",
            "epoch_date_close_approach": 4848684360000,
            "relative_velocity": {
                "kilometers_per_second": "15.1958292347",
                "kilometers_per_hour": "54704.9852448782",
                "miles_per_hour": "33991.5504150745"
            },
            "miss_distance": {
                "astronomical": "0.3721271889",
                "lunar": "144.7574764821",
                "kilometers": "55669434.828527643",
                "miles": "34591382.7787137534"
            },
            "orbiting_body": "Earth"
        },
        {
            "close_approach_date": "2128-08-31",
            "close_approach_date_full": "2128-Aug-31 15:30",
            "epoch_date_close_approach": 5007022200000,
            "relative_velocity": {
                "kilometers_per_second": "20.6552382651",
                "kilometers_per_hour": "74358.8577543179",
                "miles_per_hour": "46203.702475176"
            },
            "miss_distance": {
                "astronomical": "0.2674873115",
                "lunar": "104.0525641735",
                "kilometers": "40015532.052426505",
                "miles": "24864498.635255569"
            },
            "orbiting_body": "Earth"
        },
        {
            "close_approach_date": "2130-03-09",
            "close_approach_date_full": "2130-Mar-09 15:05",
            "epoch_date_close_approach": 5054972700000,
            "relative_velocity": {
                "kilometers_per_second": "21.6830226119",
                "kilometers_per_hour": "78058.881402935",
                "miles_per_hour": "48502.7532806182"
            },
            "miss_distance": {
                "astronomical": "0.2877388968",
                "lunar": "111.9304308552",
                "kilometers": "43045126.077429816",
                "miles": "26747001.0695948208"
            },
            "orbiting_body": "Earth"
        }
    ],
    "orbital_data": {
        "orbit_id": "8",
        "orbit_determination_date": "2017-04-06 08:56:58",
        "first_observation_date": "2010-08-20",
        "last_observation_date": "2010-09-05",
        "data_arc_in_days": 16,
        "observations_used": 16,
        "orbit_uncertainty": "8",
        "minimum_orbit_intersection": ".22834",
        "jupiter_tisserand_invariant": "5.270",
        "epoch_osculation": "2455433.5",
        "eccentricity": ".4514663178580678",
        "semi_major_axis": "1.148921322429484",
        "inclination": "27.94646239162951",
        "ascending_node_longitude": "139.7797271132262",
        "orbital_period": "449.8149246410738",
        "perihelion_distance": ".6302220434836231",
        "perihelion_argument": "317.7373142528015",
        "aphelion_distance": "1.667620601375345",
        "perihelion_time": "2455517.810776236064",
        "mean_anomaly": "292.5236274247635",
        "mean_motion": ".8003291582360436",
        "equinox": "J2000",
        "orbit_class": {
            "orbit_class_type": "APO",
            "orbit_class_description": "Near-Earth asteroid orbits which cross the Earth’s orbit similar to that of 1862 Apollo",
            "orbit_class_range": "a (semi-major axis) > 1.0 AU; q (perihelion) < 1.017 AU"
        }
    },
    "is_sentry_object": false
}